NORAD_CAT_ID,OBJECT_NAME,OBJECT_TYPE,EPOCH,MEAN_MOTION,ECCENTRICITY,INCLINATION,RA_OF_ASC_NODE,ARG_OF_PERICENTER,MEAN_ANOMALY,BSTAR,MEAN_MOTION_DOT,MEAN_MOTION_DDOT,TLE_LINE0,TLE_LINE1,TLE_LINE2,SEMIMAJOR_AXIS,PERIOD,APOGEE,PERIGEE,DECAYED
50838.0,STARLINK-3322,PAYLOAD,2024-08-08 10:47:17,15.1231473,0.000501,53.2145,249.2654,14.1427,345.9706,0.0012304,0.00021326,0.0,0 STARLINK-3322,1 50838U 22001AM  24221.44951315  .00021326  00000-0  12304-2 0  9998,2 50838  53.2145 249.2654 0005010  14.1427 345.9706 15.12314730143057,6907.28,95.218,532.605,525.684,0.0
50838.0,STARLINK-3322,PAYLOAD,2024-08-09 10:34:46,15.12351963,0.0005013,53.2145,244.7913,17.5467,342.5699,0.0011081,0.00019191,0.0,0 STARLINK-3322,1 50838U 22001AM  24222.44081570  .00019191  00000-0  11081-2 0  9994,2 50838  53.2145 244.7913 0005013  17.5467 342.5699 15.12351963143209,6907.167,95.216,532.494,525.569,0.0
50838.0,STARLINK-3322,PAYLOAD,2024-08-09 18:30:35,15.12366159,0.0005026,53.2142,243.2995,18.1314,341.9858,0.0011183,0.00019378,0.0,0 STARLINK-3322,1 50838U 22001AM  24222.77124376  .00019378  00000-0  11183-2 0  9992,2 50838  53.2142 243.2995 0005026  18.1314 341.9858 15.12366159144453,6907.123,95.215,532.46,525.517,0.0
50838.0,STARLINK-3322,PAYLOAD,2024-08-10 10:22:12,15.12391794,0.0005105,53.2143,240.3169,20.296,339.8236,0.0010495,0.00018178,0.0,0 STARLINK-3322,1 50838U 22001AM  24223.43209172  .00018178  00000-0  10495-2 0  9996,2 50838  53.2143 240.3169 0005105  20.2960 339.8236 15.12391794143351,6907.045,95.213,532.436,525.384,0.0
50838.0,STARLINK-3322,PAYLOAD,2024-08-11 06:59:17,15.12432209,0.0005216,53.2144,236.4374,22.9844,337.1382,0.0012929,0.00022503,0.0,0 STARLINK-3322,1 50838U 22001AM  24224.29117547  .00022503  00000-0  12929-2 0  9996,2 50838  53.2144 236.4374 0005216  22.9844 337.1382 15.12432209144686,6906.922,95.211,532.39,525.185,0.0
50838.0,STARLINK-3322,PAYLOAD,2024-08-11 18:05:23,15.12456026,0.0005174,53.2142,234.3502,24.3902,335.7335,0.0014866,0.00025949,0.0,0 STARLINK-3322,1 50838U 22001AM  24224.75374967  .00025949  00000-0  14866-2 0  9997,2 50838  53.2142 234.3502 0005174  24.3902 335.7335 15.12456026143558,6906.85,95.209,532.288,525.141,0.0
50838.0,STARLINK-3322,PAYLOAD,2024-08-12 06:46:38,15.12482206,0.000519,53.2138,231.9637,25.6565,334.4686,0.0012944,0.00022561,0.0,0 STARLINK-3322,1 50838U 22001AM  24225.28239579  .00022561  00000-0  12944-2 0  9997,2 50838  53.2138 231.9637 0005190  25.6565 334.4686 15.12482206143635,6906.77,95.208,532.22,525.05,0.0
50838.0,STARLINK-3322,PAYLOAD,2024-08-12 17:52:43,15.12530072,0.0005214,53.2141,229.8749,27.2907,332.836,0.0023397,0.00041185,0.0,0 STARLINK-3322,1 50838U 22001AM  24225.74494944  .00041185  00000-0  23397-2 0  9994,2 50838  53.2141 229.8749 0005214  27.2907 332.8360 15.12530072144901,6906.624,95.205,532.09,524.888,0.0
50838.0,STARLINK-3322,PAYLOAD,2024-08-13 04:58:47,15.12543341,0.0005223,53.2143,227.7857,29.1335,330.9949,0.0011457,0.00019962,0.0,0 STARLINK-3322,1 50838U 22001AM  24226.20749557  .00019962  00000-0  11457-2 0  9991,2 50838  53.2143 227.7857 0005223  29.1335 330.9949 15.12543341144978,6906.584,95.204,532.056,524.842,0.0
50838.0,STARLINK-3322,PAYLOAD,2024-08-13 06:33:56,15.12545712,0.0005262,53.2143,227.4879,29.1653,330.9634,0.0010179,0.00017697,0.0,0 STARLINK-3322,1 50838U 22001AM  24226.27357286  .00017697  00000-0  10179-2 0  9995,2 50838  53.2143 227.4879 0005262  29.1653 330.9634 15.12545712143788,6906.577,95.204,532.076,524.807,0.0
50838.0,STARLINK-3322,PAYLOAD,2024-08-13 17:40:00,15.12568763,0.0005302,53.2143,225.3995,30.1661,329.9637,0.0011402,0.00019879,0.0,0 STARLINK-3322,1 50838U 22001AM  24226.73611158  .00019879  00000-0  11402-2 0  9991,2 50838  53.2143 225.3995 0005302  30.1661 329.9637 15.12568763143850,6906.506,95.202,532.033,524.71,0.0
50838.0,STARLINK-3322,PAYLOAD,2024-08-14 06:21:11,15.12588943,0.000539,53.2142,223.0131,31.7311,328.4007,0.0012584,0.0002199,0.0,0 STARLINK-3322,1 50838U 22001AM  24227.26472134  .00021990  00000-0  12584-2 0  9998,2 50838  53.2142 223.0131 0005390  31.7311 328.4007 15.12588943145132,6906.445,95.201,532.033,524.587,0.0
50838.0,STARLINK-3322,PAYLOAD,2024-08-14 09:31:29,15.12593132,0.0005429,53.2143,222.4168,31.5503,328.5815,0.0011889,0.00020758,0.0,0 STARLINK-3322,1 50838U 22001AM  24227.39687257  .00020758  00000-0  11889-2 0  9994,2 50838  53.2143 222.4168 0005429  31.5503 328.5815 15.12593132143952,6906.432,95.201,532.047,524.548,0.0
50838.0,STARLINK-3322,PAYLOAD,2024-08-15 06:08:25,15.12614572,0.0005463,53.2142,218.5377,33.8987,326.2355,0.00082375,0.00014286,0.0,0 STARLINK-3322,1 50838U 22001AM  24228.25584889  .00014286  00000-0  82375-3 0  9995,2 50838  53.2142 218.5377 0005463  33.8987 326.2355 15.12614572145282,6906.367,95.199,532.005,524.459,0.0
50838.0,STARLINK-3322,PAYLOAD,2024-08-16 05:55:37,15.12647114,0.0005516,53.2143,214.0626,36.3668,323.7699,0.00092367,0.00016074,0.0,0 STARLINK-3322,1 50838U 22001AM  24229.24695637  .00016074  00000-0  92367-3 0  9998,2 50838  53.2143 214.0626 0005516  36.3668 323.7699 15.12647114144239,6906.268,95.197,531.942,524.323,0.0
50838.0,STARLINK-3322,PAYLOAD,2024-08-17 05:42:46,15.12675258,0.0005532,53.2143,209.5868,38.979,321.1602,0.00079503,0.000138,0.0,0 STARLINK-3322,1 50838U 22001AM  24230.23804367  .00013800  00000-0  79503-3 0  9992,2 50838  53.2143 209.5868 0005532  38.9790 321.1602 15.12675258145583,6906.182,95.196,531.868,524.227,0.0
50838.0,STARLINK-3322,PAYLOAD,2024-08-18 05:29:55,15.12708614,0.0006353,53.2143,205.1108,38.0678,322.0764,0.0010679,0.00018672,0.0,0 STARLINK-3322,1 50838U 22001AM  24231.22911328  .00018672  00000-0  10679-2 0  9998,2 50838  53.2143 205.1108 0006353  38.0678 322.0764 15.12708614144536,6906.081,95.193,532.333,523.558,0.0
50838.0,STARLINK-3322,PAYLOAD,2024-08-19 05:17:01,15.12736571,0.0005537,53.2145,200.6357,45.022,315.1222,0.00075551,0.0001312,0.0,0 STARLINK-3322,1 50838U 22001AM  24232.22015789  .00013120  00000-0  75551-3 0  9999,2 50838  53.2145 200.6357 0005537  45.0220 315.1222 15.12736571145882,6905.996,95.192,531.685,524.037,0.0
50838.0,STARLINK-3322,PAYLOAD,2024-08-20 06:39:14,15.12774656,0.0005543,53.2142,195.8611,48.1442,312.0024,0.00096441,0.00016859,0.0,0 STARLINK-3322,1 50838U 22001AM  24233.27725118  .00016859  00000-0  96441-3 0  9992,2 50838  53.2142 195.8611 0005543  48.1442 312.0024 15.12774656146045,6905.88,95.189,531.573,523.917,0.0
50838.0,STARLINK-3322,PAYLOAD,2024-08-21 04:51:08,15.12809531,0.0005576,53.2144,191.6838,50.8182,309.3307,0.0010733,0.0001882,0.0,0 STARLINK-3322,1 50838U 22001AM  24234.20218649  .00018820  00000-0  10733-2 0  9991,2 50838  53.2144 191.6838 0005576  50.8182 309.3307 15.12809531144984,6905.774,95.187,531.489,523.788,0.0
50838.0,STARLINK-3322,PAYLOAD,2024-08-21 20:42:29,15.12835635,0.000567,53.2144,188.6984,52.3874,307.7634,0.0011179,0.00019631,0.0,0 STARLINK-3322,1 50838U 22001AM  24234.86284121  .00019631  00000-0  11179-2 0  9997,2 50838  53.2144 188.6984 0005670  52.3874 307.7634 15.12835635146286,6905.694,95.185,531.475,523.644,0.0
